STARLINK-31676          
1 59900U 24100R   26068.21708419  .00000478  00000+0  26887-4 0  9997
2 59900  42.9990 128.1434 0001282 163.6464 196.4430 15.27566795100971
TRANSPORTER-13 OBJECT AH
1 63241U 25052AH  26068.64880921  .00014108  00000+0  55931-3 0  9999
2 63241  97.3962 323.1443 0008070 138.7508 221.4341 15.25468797 54753
